{
    "links": {
        "self": "http://www.neowsapp.com/rest/v1/neo/3787086?api_key=iIulBulltgU6a56xZRHN4H3l9WmuAYTsLGpBGhQ2"
    },
    "id": "3787086",
    "neo_reference_id": "3787086",
    "name": "(2017 UG1)",
    "designation": "2017 UG1",
    "nasa_jpl_url": "http://ssd.jpl.nasa.gov/sbdb.cgi?sstr=3787086",
    "absolute_magnitude_h": 27.8,
    "estimated_diameter": {
        "kilometers": {
            "estimated_diameter_min": 0.0073207399,
            "estimated_diameter_max": 0.016369672
        },
        "meters": {
            "estimated_diameter_min": 7.3207398935,
            "estimated_diameter_max": 16.3696720474
        },
        "miles": {
            "estimated_diameter_min": 0.0045488955,
            "estimated_diameter_max": 0.0101716395
        },
        "feet": {
            "estimated_diameter_min": 24.0181762721,
            "estimated_diameter_max": 53.70627484
        }
    },
    "is_potentially_hazardous_asteroid": false,
    "close_approach_data": [
        {
            "close_approach_date": "2017-10-16",
            "close_approach_date_full": "2017-Oct-16 12:05",
            "epoch_date_close_approach": 1508155500000,
            "relative_velocity": {
                "kilometers_per_second": "5.8352605932",
                "kilometers_per_hour": "21006.9381355665",
                "miles_per_hour": "13052.894420958"
            },
            "miss_distance": {
                "astronomical": "0.0288662845",
                "lunar": "11.2289846705",
                "kilometers": "4318334.676014015",
                "miles": "2683288.741922807"
            },
            "orbiting_body": "Earth"
        }
    ],
    "orbital_data": {
        "orbit_id": "2",
        "orbit_determination_date": "2019-07-19 05:26:19",
        "first_observation_date": "2017-10-16",
        "last_observation_date": "2017-10-18",
        "data_arc_in_days": 2,
        "observations_used": 22,
        "orbit_uncertainty": "8",
        "minimum_orbit_intersection": ".0286684",
        "jupiter_tisserand_invariant": "3.921",
        "epoch_osculation": "2458044.5",
        "eccentricity": ".4376704359708866",
        "semi_major_axis": "1.819504967524987",
        "inclination": "3.863963305974254",
        "ascending_node_longitude": "199.7668486456084",
        "orbital_period": "896.4545901385566",
        "perihelion_distance": "1.023161435137132",
        "perihelion_argument": "190.0978471953163",
        "aphelion_distance": "2.615848499912842",
        "perihelion_time": "2458048.813685151218",
        "mean_anomaly": "358.2677018205702",
        "mean_motion": ".4015819696392632",
        "equinox": "J2000",
        "orbit_class": {
            "orbit_class_type": "AMO",
            "orbit_class_description": "Near-Earth asteroid orbits similar to that of 1221 Amor",
            "orbit_class_range": "1.017 AU < q (perihelion) < 1.3 AU"
        }
    },
    "is_sentry_object": false
}